EYESAT A (AO-27)        
1 22825U 93061C   26132.12878030  .00000048  00000+0  35226-4 0  9994
2 22825  98.6892 199.5521 0008009 198.7096 161.3793 14.30932122701849
ITAMSAT (IO-26)         
1 22826U 93061D   26132.18883257  .00000041  00000+0  32426-4 0  9990
2 22826  98.6840 199.5260 0008855 182.0397 178.0752 14.31358030702169
RADIO ROSTO (RS15)      
1 23439U 94085A   26132.19690343 -.00000047  00000+0 -11641-3 0  9994
2 23439  64.8201   1.4246 0154943  10.4635 349.9454 11.27583718291841
JAS-2 (FO-29)           
1 24278U 96046B   26132.08235386 -.00000036  00000+0 -75877-6 0  9997
2 24278  98.5280 345.8926 0349676 189.9733 169.4342 13.53272280468289
FORTE                   
1 24920U 97047A   26132.22942117  .00000113  00000+0  68988-4 0  9993
2 24920  69.9520  95.2381 0023625 321.3590  38.5840 14.27929684493555
TECHSAT 1B (GO-32)      
1 25397U 98043D   26132.24036970  .00000037  00000+0  36038-4 0  9998
2 25397  99.0064 124.0946 0001053  14.1410 345.9798 14.24421185446216
ISS (ZARYA)             
1 25544U 98067A   26132.19887560  .00004713  00000+0  93039-4 0  9990
2 25544  51.6312 118.2489 0007475  49.7974 310.3668 15.49191856566177
IMAGE                   
1 26113U 00017A   26131.51486742  .00000008  00000+0 -20584-1 0  9999
2 26113  94.2002 314.8870 7459903 291.9767   8.1989  1.68665748160880
CLUSTER II-FM7 (SAMBA)  
1 26410U 00041A   26134.67012284  .00003081  00000+0  00000+0 0  9994
2 26410 149.8131  45.0140 9016039 261.7471   0.4872  0.44842106 20150
CLUSTER II-FM8 (TANGO)  
1 26464U 00045B   26134.64524915  .00003165  00000+0  00000+0 0  9996
2 26464 150.0702  46.0108 9019980 262.6015   0.5030  0.44404709 20143
ODIN                    
1 26702U 01007A   26132.08926049  .00071017  00000+0  69283-3 0  9993
2 26702  97.3937 170.9956 0001958 199.0774 161.0413 15.65988801383735
OMNI-M1                 
1 26857U 01026A   26131.53751176 -.00000020  00000+0  00000+0 0  9996
2 26857  44.8444 253.7114 0015492  47.0887 313.0619  3.92401500204133
PCSAT (NO-44)           
1 26931U 01043C   26132.25860173  .00000069  00000+0  56733-4 0  9997
2 26931  67.0513 337.2000 0006286 263.7301  96.3085 14.31941761285300
PROBA-1                 
1 26958U 01049B   26132.29132235  .00001897  00000+0  12614-3 0  9996
2 26958  97.9616 139.5731 0053776 243.8038 115.7654 15.07361365338218
SAUDISAT 1C (SO-50)     
1 27607U 02058C   26132.28030412  .00000642  00000+0  93606-4 0  9990
2 27607  64.5523 240.0721 0075632 269.0331  90.2109 14.82969342259131
CORIOLIS                
1 27640U 03001A   26132.25990985  .00000074  00000+0  55297-4 0  9996
2 27640  98.7136 139.6924 0013201 320.4205  39.6007 14.19934649209121
CUTE-1 (CO-55)          
1 27844U 03031E   26131.92940550  .00000190  00000+0  10139-3 0  9995
2 27844  98.6747 140.9437 0008369 293.9469  66.0833 14.24312642186510
CUBESAT XI-IV (CO-57)   
1 27848U 03031J   26131.97000580  .00000168  00000+0  92943-4 0  9993
2 27848  98.6780 140.7254 0008525 314.7788  45.2696 14.23600890186224
MOZHAETS 4 (RS22)       
1 27939U 03042A   26132.30007237  .00000538  00000+0  91247-4 0  9997
2 27939  98.3476 315.6473 0011901  28.5091  96.2473 14.73402214210265
